NAVSTAR 77 (USA 289)    
1 43873U 18109A   23261.62127286  .00000033  00000+0  00000+0 0  9996
2 43873  55.1966 131.8010 0025900 190.5088 350.4916  2.00569457 34968
